BADR-5                  
1 36592U 10025A   26196.56310012  .00000143  00000+0  00000+0 0  9991
2 36592   0.0505 115.6063 0005157  80.4466 330.5211  1.00270710 53501
COMS 1                  
1 36744U 10032A   26196.05061451 -.00000257  00000+0  00000+0 0  9999
2 36744   4.8746  75.0193 0011292  14.6864 184.0547  0.99167988 51365
ARABSAT-5A              
1 36745U 10032B   26196.56310012  .00000143  00000+0  00000+0 0  9999
2 36745   0.1118  66.6738 0005728  56.7974  43.1594  1.00274391 58932
ECHOSTAR 15             
1 36792U 10034A   26196.60484735 -.00000010  00000+0  00000+0 0  9996
2 36792   0.0473 263.3398 0001825 191.6989 297.3371  1.00272027 58608
BEIDOU-2 IGSO-1         
1 36828U 10036A   26195.91730701 -.00000122  00000+0  00000+0 0  9992
2 36828  54.3063 162.7092 0059022 225.2803 342.1032  1.00264343 58378
NILESAT 201             
1 36830U 10037A   26194.47961264 -.00000061  00000+0  00000+0 0  9998
2 36830   0.0241 122.3173 0005477  16.5206 318.1955  1.00271853 58643
RASCOM-QAF 1R           
1 36831U 10037B   26195.98737006  .00000010  00000+0  00000+0 0  9994
2 36831   0.0341  86.1877 0006411  17.9558 187.0531  1.00273209 58580
AEHF-1 (USA 214)        
1 36868U 10039A   26196.27789916  .00000133  00000+0  00000+0 0  9992
2 36868   8.2883  67.6793 0003735  37.4829 317.9650  1.00274579 53937
XM-5                    
1 37185U 10053A   26194.27598828 -.00000026  00000+0  00000+0 0  9991
2 37185   0.0648 265.0318 0001728 322.3275  47.9546  1.00270903 57741
BSAT-3B                 
1 37207U 10056B   26196.66459642 -.00000360  00000+0  00000+0 0  9995
2 37207   0.0754 245.4694 0002667 296.9460 100.1795  1.00270973 52388
BEIDOU-2 G4             
1 37210U 10057A   26196.58872727 -.00000126  00000+0  00000+0 0  9994
2 37210   3.7150  68.7636 0005748 184.5414  51.9836  1.00269697 57574
SKYTERRA 1              
1 37218U 10061A   26196.60831403 -.00000130  00000+0  00000+0 0  9991
2 37218   5.1837  50.8072 0002537  25.9322 334.3734  1.00270290 57470
HYLAS 1                 
1 37237U 10065A   26196.20712424  .00000130  00000+0  00000+0 0  9992
2 37237   5.7124  72.6722 0001185 147.5701 179.7586  1.00640908  7164
INTELSAT 17 (IS-17)     
1 37238U 10065B   26196.62058611  .00000000  00000+0  00000+0 0  9996
2 37238   0.0353  98.8345 0002834  41.6474  82.3701  1.00270917 53530
BEIDOU-2 IGSO-2         
1 37256U 10068A   26196.64956755 -.00000192  00000+0  00000+0 0  9990
2 37256  47.4956 271.4764 0056901 213.8035 150.3630  1.00272942 57089
EUTELSAT KA-SAT 9A      
1 37258U 10069A   26196.34499685  .00000052  00000+0  00000+0 0  9998
2 37258   0.0610 357.6007 0004504 146.2095 282.5693  1.00270830 44297
HISPASAT 30W-5          
1 37264U 10070A   26196.40853498 -.00000226  00000+0  00000+0 0  9994
2 37264   0.0292 109.9130 0005590  17.5082 282.9019  1.00270360 53460
KOREASAT 6              
1 37265U 10070B   26196.58872727 -.00000122  00000+0  00000+0 0  9995
2 37265   0.0174  48.1887 0002526  80.7363 176.3411  1.00271039 57058
BEIDOU-2 IGSO-3         
1 37384U 11013A   26196.50661554 -.00000166  00000+0  00000+0 0  9999
2 37384  62.4464  39.8847 0035199 183.4921 358.8227  1.00260311 55949
INTELSAT 28 (IS-28)     
1 37392U 11016A   26196.40818831 -.00000236  00000+0  00000+0 0  9990
2 37392   1.8771  82.2783 0003673  39.9840 286.2268  1.00272215 53565
YAHSAT 1A               
1 37393U 11016B   26195.42673919  .00000000  00000+0  00000+0 0  9996
2 37393   0.0273  65.8741 0003070  47.4743  25.0682  1.00269506 42681
SBIRS GEO-1 (USA 230)   
1 37481U 11019A   26196.63864750  .00000087  00000+0  00000+0 0  9991
2 37481   4.5972  53.0979 0001877  56.5606 105.5391  1.00272323 55684
TELSTAR 14R             
1 37602U 11021A   26195.54654036 -.00000288  00000+0  00000+0 0  9996
2 37602   0.0856  84.9749 0001600   1.1935 339.9946  1.00270342 56100
GSAT-8                  
1 37605U 11022A   26196.63925417  .00000073  00000+0  00000+0 0  9996
2 37605   2.2026  81.4717 0002665 162.2937 334.9379  1.00272431 53503
ST-2                    
1 37606U 11022B   26196.57448175 -.00000221  00000+0  00000+0 0  9997
2 37606   0.0160  59.5963 0001515  71.3806  97.2741  1.00271823 55560
ZHONGXING-10            
1 37677U 11026A   26196.64532086 -.00000200  00000+0  00000+0 0  9999
2 37677   1.1177  83.8533 0003304  15.3692 152.0519  1.00277915 55280
SES-3                   
1 37748U 11035A   26196.60796736 -.00000113  00000+0  00000+0 0  9991
2 37748   1.3981  82.7706 0001951  32.3957 294.1628  1.00271377 54872
KAZSAT-2                
1 37749U 11035B   26196.36016358 -.00000207  00000+0  00000+0 0  9994
2 37749   0.0270 112.5462 0001891  60.6657 336.1516  1.00272892 53689
BEIDOU-2 IGSO-4         
1 37763U 11038A   26193.91136250 -.00000017  00000+0  00000+0 0  9994
2 37763  54.6038 165.4445 0160342 231.4539 316.2369  1.00279714 54905
ASTRA 1N                
1 37775U 11041A   26196.56084677  .00000109  00000+0  00000+0 0  9991
2 37775   0.0613   9.9737 0005759 104.4461  40.0696  1.00269803 44813
BSAT-3C (JCSAT-110R)    
1 37776U 11041B   26196.66459617 -.00000360  00000+0  00000+0 0  9993
2 37776   0.0188 347.6651 0000286 225.8362  69.2074  1.00269948 50759
PAKSAT-1R               
1 37779U 11042A   26196.63587416  .00000143  00000+0  00000+0 0  9991
2 37779   0.7607  84.3246 0003082 350.8185 125.2238  1.00268796 54769
