OBJECT_NAME,OBJECT_ID,EPOCH,MEAN_MOTION,ECCENTRICITY,INCLINATION,RA_OF_ASC_NODE,ARG_OF_PERICENTER,MEAN_ANOMALY,EPHEMERIS_TYPE,CLASSIFICATION_TYPE,NORAD_CAT_ID,ELEMENT_SET_NO,REV_AT_EPOCH,BSTAR,MEAN_MOTION_DOT,MEAN_MOTION_DDOT
BADR-5,2010-025A,2026-07-15T13:30:51.850368,1.00270710,.00051574,0.0505,115.6063,80.4466,330.5211,0,U,36592,999,5350,0,.143E-5,0
COMS 1,2010-032A,2026-07-15T01:12:53.093664,0.99167988,.00112925,4.8746,75.0193,14.6864,184.0547,0,U,36744,999,5136,0,-.257E-5,0
ARABSAT-5A,2010-032B,2026-07-15T13:30:51.850368,1.00274391,.00057287,0.1118,66.6738,56.7974,43.1594,0,U,36745,999,5893,0,.143E-5,0
ECHOSTAR 15,2010-034A,2026-07-15T14:30:58.811040,1.00272027,.00018254,0.0473,263.3398,191.6989,297.3371,0,U,36792,999,5860,0,-.1E-6,0
BEIDOU-2 IGSO-1,2010-036A,2026-07-14T22:00:55.325664,1.00264343,.0059022,54.3063,162.7092,225.2803,342.1032,0,U,36828,999,5837,0,-.122E-5,0
NILESAT 201,2010-037A,2026-07-13T11:30:38.532096,1.00271853,.00054772,0.0241,122.3173,16.5206,318.1955,0,U,36830,999,5864,0,-.61E-6,0
RASCOM-QAF 1R,2010-037B,2026-07-14T23:41:48.773184,1.00273209,.00064112,0.0341,86.1877,17.9558,187.0531,0,U,36831,999,5858,0,.1E-6,0
AEHF-1 (USA 214),2010-039A,2026-07-15T06:40:10.487424,1.00274579,.00037358,8.2883,67.6793,37.4829,317.9650,0,U,36868,999,5393,0,.133E-5,0
XM-5,2010-053A,2026-07-13T06:37:25.387392,1.00270903,.0001728,0.0648,265.0318,322.3275,47.9546,0,U,37185,999,5774,0,-.26E-6,0
BSAT-3B,2010-056B,2026-07-15T15:57:01.130688,1.00270973,.00026673,0.0754,245.4694,296.9460,100.1795,0,U,37207,999,5238,0,-.36E-5,0
BEIDOU-2 G4,2010-057A,2026-07-15T14:07:46.036128,1.00269697,.00057483,3.7150,68.7636,184.5414,51.9836,0,U,37210,999,5757,0,-.126E-5,0
SKYTERRA 1,2010-061A,2026-07-15T14:35:58.332192,1.00270290,.0002537,5.1837,50.8072,25.9322,334.3734,0,U,37218,999,5747,0,-.13E-5,0
HYLAS 1,2010-065A,2026-07-15T04:58:15.534336,1.00640908,.00011853,5.7124,72.6722,147.5701,179.7586,0,U,37237,999,716,0,.13E-5,0
INTELSAT 17 (IS-17),2010-065B,2026-07-15T14:53:38.639904,1.00270917,.00028343,0.0353,98.8345,41.6474,82.3701,0,U,37238,999,5353,0,0,0
BEIDOU-2 IGSO-2,2010-068A,2026-07-15T15:35:22.636320,1.00272942,.00569016,47.4956,271.4764,213.8035,150.3630,0,U,37256,999,5708,0,-.192E-5,0
EUTELSAT KA-SAT 9A,2010-069A,2026-07-15T08:16:47.727840,1.00270830,.00045048,0.0610,357.6007,146.2095,282.5693,0,U,37258,999,4429,0,.52E-6,0
HISPASAT 30W-5,2010-070A,2026-07-15T09:48:17.422272,1.00270360,.00055903,0.0292,109.9130,17.5082,282.9019,0,U,37264,999,5346,0,-.226E-5,0
KOREASAT 6,2010-070B,2026-07-15T14:07:46.036128,1.00271039,.00025266,0.0174,48.1887,80.7363,176.3411,0,U,37265,999,5705,0,-.122E-5,0
BEIDOU-2 IGSO-3,2011-013A,2026-07-15T12:09:31.582656,1.00260311,.00351999,62.4464,39.8847,183.4921,358.8227,0,U,37384,999,5594,0,-.166E-5,0
INTELSAT 28 (IS-28),2011-016A,2026-07-15T09:47:47.469984,1.00272215,.00036738,1.8771,82.2783,39.9840,286.2268,0,U,37392,999,5356,0,-.236E-5,0
YAHSAT 1A,2011-016B,2026-07-14T10:14:30.266016,1.00269506,.00030707,0.0273,65.8741,47.4743,25.0682,0,U,37393,999,4268,0,0,0
SBIRS GEO-1 (USA 230),2011-019A,2026-07-15T15:19:39.144000,1.00272323,.00018775,4.5972,53.0979,56.5606,105.5391,0,U,37481,999,5568,0,.87E-6,0
TELSTAR 14R,2011-021A,2026-07-14T13:07:01.087104,1.00270342,.00016,0.0856,84.9749,1.1935,339.9946,0,U,37602,999,5610,0,-.288E-5,0
GSAT-8,2011-022A,2026-07-15T15:20:31.560288,1.00272431,.00026659,2.2026,81.4717,162.2937,334.9379,0,U,37605,999,5350,0,.73E-6,0
ST-2,2011-022B,2026-07-15T13:47:15.223200,1.00271823,.00015151,0.0160,59.5963,71.3806,97.2741,0,U,37606,999,5556,0,-.221E-5,0
ZHONGXING-10,2011-026A,2026-07-15T15:29:15.722304,1.00277915,.0003304,1.1177,83.8533,15.3692,152.0519,0,U,37677,999,5528,0,-.2E-5,0
SES-3,2011-035A,2026-07-15T14:35:28.379904,1.00271377,.00019512,1.3981,82.7706,32.3957,294.1628,0,U,37748,999,5487,0,-.113E-5,0
KAZSAT-2,2011-035B,2026-07-15T08:38:38.133312,1.00272892,.00018919,0.0270,112.5462,60.6657,336.1516,0,U,37749,999,5368,0,-.207E-5,0
BEIDOU-2 IGSO-4,2011-038A,2026-07-12T21:52:21.720000,1.00279714,.01603423,54.6038,165.4445,231.4539,316.2369,0,U,37763,999,5490,0,-.17E-6,0
ASTRA 1N,2011-041A,2026-07-15T13:27:37.160928,1.00269803,.00057599,0.0613,9.9737,104.4461,40.0696,0,U,37775,999,4481,0,.109E-5,0
BSAT-3C (JCSAT-110R),2011-041B,2026-07-15T15:57:01.109088,1.00269948,.00002864,0.0188,347.6651,225.8362,69.2074,0,U,37776,999,5075,0,-.36E-5,0
PAKSAT-1R,2011-042A,2026-07-15T15:15:39.527424,1.00268796,.00030823,0.7607,84.3246,350.8185,125.2238,0,U,37779,999,5476,0,.143E-5,0
